start=new Date('2023-05-07T00:00:00.000Z').valueOf();
sats=[{"MEAN_MOTION_DOT":"0.00000257","INCLINATION":"53.0542","NORAD_CAT_ID":"45590","ECCENTRICITY":"0.00013710","ELEMENT_SET_NO":"999","GP_ID":"231349099","COUNTRY_CODE":"US","PERIAPSIS":"546.297","ARG_OF_PERICENTER":"80.3191","CENTER_NAME":"EARTH","TLE_LINE2":"2 45590  53.0542  88.0881 0001371  80.3191 279.7953 15.06389256168597","REV_AT_EPOCH":"16859","REF_FRAME":"TEME","TIME_SYSTEM":"UTC","TLE_LINE1":"1 45590U 20025BM  23126.30951223  .00000257  00000-0  36146-4 0  9999","FILE":"3902298","MEAN_MOTION_DDOT":"0.0000000000000","MEAN_ANOMALY":"279.7953","OBJECT_ID":"2020-025BM","LAUNCH_DATE":"2020-04-22","SEMIMAJOR_AXIS":"6925.381","BSTAR":"0.00003614600000","DECAY_DATE":null,"APOAPSIS":"548.196","RCS_SIZE":"LARGE","RA_OF_ASC_NODE":"88.0881","PERIOD":"95.593","SITE":"AFETR","CLASSIFICATION_TYPE":"U","OBJECT_TYPE":"PAYLOAD","EPHEMERIS_TYPE":"0","EPOCH":"2023-05-06T07:25:41.856672","MEAN_MOTION":"15.06389256","OBJECT_NAME":"STARLINK-1365","MEAN_ELEMENT_THEORY":"SGP4"},{"FILE":"3902298","MEAN_MOTION_DDOT":"0.0000000000000","REF_FRAME":"TEME","REV_AT_EPOCH":"16222","TLE_LINE1":"1 45658U 20035B   23126.28371477  .00004066  00000-0  29178-3 0  9997","TIME_SYSTEM":"UTC","TLE_LINE2":"2 45658  53.0552  48.2014 0001322 102.4461 257.6676 15.06392996162227","CENTER_NAME":"EARTH","ARG_OF_PERICENTER":"102.4461","PERIAPSIS":"546.319","GP_ID":"231348846","COUNTRY_CODE":"US","ELEMENT_SET_NO":"999","MEAN_MOTION_DOT":"0.00004066","NORAD_CAT_ID":"45658","ECCENTRICITY":"0.00013220","INCLINATION":"53.0552","OBJECT_NAME":"STARLINK-1441","MEAN_ELEMENT_THEORY":"SGP4","MEAN_MOTION":"15.06392996","EPOCH":"2023-05-06T06:48:32.956128","CLASSIFICATION_TYPE":"U","EPHEMERIS_TYPE":"0","OBJECT_TYPE":"PAYLOAD","SITE":"AFETR","PERIOD":"95.593","DECAY_DATE":null,"RA_OF_ASC_NODE":"48.2014","RCS_SIZE":"LARGE","APOAPSIS":"548.151","LAUNCH_DATE":"2020-06-04","SEMIMAJOR_AXIS":"6925.370","BSTAR":"0.00029178000000","MEAN_ANOMALY":"257.6676","OBJECT_ID":"2020-035B"},{"ELEMENT_SET_NO":"999","COUNTRY_CODE":"US","GP_ID":"231348103","ECCENTRICITY":"0.00014660","NORAD_CAT_ID":"45659","INCLINATION":"53.0562","MEAN_MOTION_DOT":"0.00011543","TLE_LINE1":"1 45659U 20035C   23126.35280650  .00011543  00000-0  79263-3 0  9996","TIME_SYSTEM":"UTC","REF_FRAME":"TEME","REV_AT_EPOCH":"16222","MEAN_MOTION_DDOT":"0.0000000000000","FILE":"3902298","ARG_OF_PERICENTER":"84.2890","PERIAPSIS":"546.215","TLE_LINE2":"2 45659  53.0562  47.8909 0001466  84.2890 275.8266 15.06394506162225","CENTER_NAME":"EARTH","RA_OF_ASC_NODE":"47.8909","RCS_SIZE":"LARGE","APOAPSIS":"548.246","DECAY_DATE":null,"OBJECT_ID":"2020-035C","MEAN_ANOMALY":"275.8266","BSTAR":"0.00079263000000","LAUNCH_DATE":"2020-06-04","SEMIMAJOR_AXIS":"6925.365","EPHEMERIS_TYPE":"0","OBJECT_TYPE":"PAYLOAD","CLASSIFICATION_TYPE":"U","MEAN_ELEMENT_THEORY":"SGP4","OBJECT_NAME":"STARLINK-1442","MEAN_MOTION":"15.06394506","EPOCH":"2023-05-06T08:28:02.481600","SITE":"AFETR","PERIOD":"95.592"},{"CLASSIFICATION_TYPE":"U","EPHEMERIS_TYPE":"0","OBJECT_TYPE":"PAYLOAD","MEAN_ELEMENT_THEORY":"SGP4","OBJECT_NAME":"STARLINK-1443","MEAN_MOTION":"15.06382210","EPOCH":"2023-05-06T07:04:28.826976","PERIOD":"95.593","SITE":"AFETR","DECAY_DATE":null,"RA_OF_ASC_NODE":"48.1512","RCS_SIZE":"LARGE","APOAPSIS":"548.119","MEAN_ANOMALY":"295.2474","OBJECT_ID":"2020-035D","LAUNCH_DATE":"2020-06-04","SEMIMAJOR_AXIS":"6925.403","BSTAR":"0.00137370000000","REF_FRAME":"TEME","REV_AT_EPOCH":"16222","TLE_LINE1":"1 45660U 20035D   23126.29477809  .00020229  00000-0  13737-2 0  9999","TIME_SYSTEM":"UTC","FILE":"3902298","MEAN_MOTION_DDOT":"0.0000000000000","PERIAPSIS":"546.417","ARG_OF_PERICENTER":"64.8642","TLE_LINE2":"2 45660  53.0537  48.1512 0001229  64.8642 295.2474 15.06382210162225","CENTER_NAME":"EARTH","ELEMENT_SET_NO":"999","GP_ID":"231348353","COUNTRY_CODE":"US","MEAN_MOTION_DOT":"0.00020229","ECCENTRICITY":"0.00012290","NORAD_CAT_ID":"45660","INCLINATION":"53.0537"},{"MEAN_MOTION_DOT":"0.00019489","INCLINATION":"53.0543","ECCENTRICITY":"0.00013810","NORAD_CAT_ID":"45661","ELEMENT_SET_NO":"999","GP_ID":"231349104","COUNTRY_CODE":"US","PERIAPSIS":"546.306","ARG_OF_PERICENTER":"101.8546","CENTER_NAME":"EARTH","TLE_LINE2":"2 45661  53.0543  48.3631 0001381 101.8546 258.2598 15.06384080162213","REV_AT_EPOCH":"16221","REF_FRAME":"TEME","TIME_SYSTEM":"UTC","TLE_LINE1":"1 45661U 20035E   23126.24685885  .00019489  00000-0  13242-2 0  9997","FILE":"3902298","MEAN_MOTION_DDOT":"0.0000000000000","MEAN_ANOMALY":"258.2598","OBJECT_ID":"2020-035E","SEMIMAJOR_AXIS":"6925.397","LAUNCH_DATE":"2020-06-04","BSTAR":"0.00132420000000","DECAY_DATE":null,"APOAPSIS":"548.219","RA_OF_ASC_NODE":"48.3631","RCS_SIZE":"LARGE","SITE":"AFETR","PERIOD":"95.593","CLASSIFICATION_TYPE":"U","OBJECT_TYPE":"PAYLOAD","EPHEMERIS_TYPE":"0","EPOCH":"2023-05-06T05:55:28.604640","MEAN_ELEMENT_THEORY":"SGP4","MEAN_MOTION":"15.06384080","OBJECT_NAME":"STARLINK-1444"},{"TLE_LINE1":"1 45662U 20035F   23126.19525833  .00023819  00000-0  16129-2 0  9997","TIME_SYSTEM":"UTC","REF_FRAME":"TEME","REV_AT_EPOCH":"16220","MEAN_MOTION_DDOT":"0.0000000000000","FILE":"3902298","PERIAPSIS":"546.541","ARG_OF_PERICENTER":"64.3025","CENTER_NAME":"EARTH","TLE_LINE2":"2 45662  53.0554  48.5996 0001006  64.3025 295.8068 15.06392246162202","ELEMENT_SET_NO":"999","COUNTRY_CODE":"US","GP_ID":"231349346","NORAD_CAT_ID":"45662","ECCENTRICITY":"0.00010060","INCLINATION":"53.0554","MEAN_MOTION_DOT":"0.00023819","EPHEMERIS_TYPE":"0","OBJECT_TYPE":"PAYLOAD","CLASSIFICATION_TYPE":"U","MEAN_ELEMENT_THEORY":"SGP4","OBJECT_NAME":"STARLINK-1445","MEAN_MOTION":"15.06392246","EPOCH":"2023-05-06T04:41:10.319712","PERIOD":"95.593","SITE":"AFETR","RCS_SIZE":"LARGE","RA_OF_ASC_NODE":"48.5996","APOAPSIS":"547.934","DECAY_DATE":null,"OBJECT_ID":"2020-035F","MEAN_ANOMALY":"295.8068","BSTAR":"0.00161290000000","SEMIMAJOR_AXIS":"6925.372","LAUNCH_DATE":"2020-06-04"},{"APOAPSIS":"548.134","RA_OF_ASC_NODE":"48.5873","RCS_SIZE":"LARGE","DECAY_DATE":null,"BSTAR":"0.00090565000000","SEMIMAJOR_AXIS":"6925.376","LAUNCH_DATE":"2020-06-04","OBJECT_ID":"2020-035G","MEAN_ANOMALY":"276.2810","EPOCH":"2023-05-06T04:46:28.714944","OBJECT_NAME":"STARLINK-1446","MEAN_ELEMENT_THEORY":"SGP4","MEAN_MOTION":"15.06391050","OBJECT_TYPE":"PAYLOAD","EPHEMERIS_TYPE":"0","CLASSIFICATION_TYPE":"U","SITE":"AFETR","PERIOD":"95.593","COUNTRY_CODE":"US","GP_ID":"231347603","ELEMENT_SET_NO":"999","INCLINATION":"53.0554","ECCENTRICITY":"0.00012890","NORAD_CAT_ID":"45663","MEAN_MOTION_DOT":"0.00013231","MEAN_MOTION_DDOT":"0.0000000000000","FILE":"3902298","TIME_SYSTEM":"UTC","TLE_LINE1":"1 45663U 20035G   23126.19894346  .00013231  00000-0  90565-3 0  9990","REV_AT_EPOCH":"16220","REF_FRAME":"TEME","CENTER_NAME":"EARTH","TLE_LINE2":"2 45663  53.0554  48.5873 0001289  83.8326 276.2810 15.06391050162200","PERIAPSIS":"546.348","ARG_OF_PERICENTER":"83.8326"},{"MEAN_MOTION_DOT":"0.00022577","INCLINATION":"53.0539","ECCENTRICITY":"0.00010490","NORAD_CAT_ID":"45665","ELEMENT_SET_NO":"999","GP_ID":"231347853","COUNTRY_CODE":"US","ARG_OF_PERICENTER":"96.8852","PERIAPSIS":"546.510","CENTER_NAME":"EARTH","TLE_LINE2":"2 45665  53.0539  49.0286 0001049  96.8852 263.2256 15.06392466162180","REV_AT_EPOCH":"16218","REF_FRAME":"TEME","TIME_SYSTEM":"UTC","TLE_LINE1":"1 45665U 20035J   23126.09941786  .00022577  00000-0  15300-2 0  9998","FILE":"3902298","MEAN_MOTION_DDOT":"0.0000000000000","MEAN_ANOMALY":"263.2256","OBJECT_ID":"2020-035J","SEMIMAJOR_AXIS":"6925.372","LAUNCH_DATE":"2020-06-04","BSTAR":"0.00153000000000","DECAY_DATE":null,"APOAPSIS":"547.963","RCS_SIZE":"LARGE","RA_OF_ASC_NODE":"49.0286","PERIOD":"95.593","SITE":"AFETR","CLASSIFICATION_TYPE":"U","OBJECT_TYPE":"PAYLOAD","EPHEMERIS_TYPE":"0","EPOCH":"2023-05-06T02:23:09.703104","MEAN_ELEMENT_THEORY":"SGP4","OBJECT_NAME":"STARLINK-1448","MEAN_MOTION":"15.06392466"},{"DECAY_DATE":null,"RA_OF_ASC_NODE":"48.6867","RCS_SIZE":"LARGE","APOAPSIS":"548.042","MEAN_ANOMALY":"256.0655","OBJECT_ID":"2020-035K","LAUNCH_DATE":"2020-06-04","SEMIMAJOR_AXIS":"6925.417","BSTAR":"0.00189240000000","CLASSIFICATION_TYPE":"U","EPHEMERIS_TYPE":"0","OBJECT_TYPE":"PAYLOAD","OBJECT_NAME":"STARLINK-1449","MEAN_ELEMENT_THEORY":"SGP4","MEAN_MOTION":"15.06377714","EPOCH":"2023-05-06T04:04:00.405696","PERIOD":"95.594","SITE":"AFETR","ELEMENT_SET_NO":"999","GP_ID":"231348605","COUNTRY_CODE":"US","MEAN_MOTION_DOT":"0.00028001","NORAD_CAT_ID":"45666","ECCENTRICITY":"0.00010970","INCLINATION":"53.0540","REF_FRAME":"TEME","REV_AT_EPOCH":"16219","TLE_LINE1":"1 45666U 20035K   23126.16944914  .00028001  00000-0  18924-2 0  9996","TIME_SYSTEM":"UTC","FILE":"3902298","MEAN_MOTION_DDOT":"0.0000000000000","ARG_OF_PERICENTER":"104.0456","PERIAPSIS":"546.522","TLE_LINE2":"2 45666  53.0540  48.6867 0001097 104.0456 256.0655 15.06377714162191","CENTER_NAME":"EARTH"},{"DECAY_DATE":null,"APOAPSIS":"548.164","RCS_SIZE":"LARGE","RA_OF_ASC_NODE":"48.7303","SEMIMAJOR_AXIS":"6925.405","LAUNCH_DATE":"2020-06-04","BSTAR":"0.00181140000000","MEAN_ANOMALY":"265.9417","OBJECT_ID":"2020-035L","EPOCH":"2023-05-06T04:07:57.827712","MEAN_ELEMENT_THEORY":"SGP4","OBJECT_NAME":"STARLINK-1450","MEAN_MOTION":"15.06381466","CLASSIFICATION_TYPE":"U","OBJECT_TYPE":"PAYLOAD","EPHEMERIS_TYPE":"0","SITE":"AFETR","PERIOD":"95.593","GP_ID":"231348847","COUNTRY_CODE":"US","ELEMENT_SET_NO":"999","MEAN_MOTION_DOT":"0.00026789","INCLINATION":"53.0539","NORAD_CAT_ID":"45667","ECCENTRICITY":"0.00012910","FILE":"3902298","MEAN_MOTION_DDOT":"0.0000000000000","REV_AT_EPOCH":"16219","REF_FRAME":"TEME","TIME_SYSTEM":"UTC","TLE_LINE1":"1 45667U 20035L   23126.17219708  .00026789  00000-0  18114-2 0  9996","TLE_LINE2":"2 45667  53.0539  48.7303 0001291  94.1720 265.9417 15.06381466162199","CENTER_NAME":"EARTH","ARG_OF_PERICENTER":"94.1720","PERIAPSIS":"546.376"}];
